NORAD_CAT_ID,OBJECT_NAME,OBJECT_TYPE,EPOCH,MEAN_MOTION,ECCENTRICITY,INCLINATION,RA_OF_ASC_NODE,ARG_OF_PERICENTER,MEAN_ANOMALY,BSTAR,MEAN_MOTION_DOT,MEAN_MOTION_DDOT,TLE_LINE0,TLE_LINE1,TLE_LINE2,SEMIMAJOR_AXIS,PERIOD,APOGEE,PERIGEE,DECAYED
53011.0,STARLINK-4265,PAYLOAD,2022-09-08 06:00:00,15.65697566,0.000121,53.2176,69.3157,71.7894,82.6244,-0.0113569999999999,-0.01048852,0.0,0 STARLINK-4265,1 53011U 22076AB  22251.25001157 -.01048852  00000-0 -11357-1 0  9998,2 53011  53.2176  69.3157 0001210  71.7894  82.6244 15.65697566 10369,6749.37,91.972,372.052,370.419,0.0
53011.0,STARLINK-4265,PAYLOAD,2022-09-08 14:00:01,15.64938127,0.0001239,53.2177,67.6827,71.8908,161.9736,-0.011704,-0.01048379,0.0,0 STARLINK-4265,1 53011U 22076AB  22251.58334491 -.01048379  00000-0 -11704-1 0  9994,2 53011  53.2177  67.6827 0001239  71.8908 161.9736 15.64938127  1304,6751.554,92.016,374.255,372.582,0.0
53011.0,STARLINK-4265,PAYLOAD,2022-09-08 22:00:00,15.64177823,0.0001072999999999,53.2174,66.0531,88.0824,224.3195,-0.012048,-0.01046931,0.0,0 STARLINK-4265,1 53011U 22076AB  22251.91667824 -.01046931  00000-0 -12048-1 0  9994,2 53011  53.2174  66.0531 0001073  88.0824 224.3195 15.64177823  1300,6753.741,92.061,376.331,374.882,0.0
53011.0,STARLINK-4265,PAYLOAD,2022-09-09 14:00:01,15.62660154,0.0001231999999999,53.2174,62.7942,63.851000000000006,42.8899,-0.0128199999999999,-0.01065101,0.0,0 STARLINK-4265,1 53011U 22076AB  22252.58334491 -.01065101  00000-0 -12820-1 0  9997,2 53011  53.2174  62.7942 0001232  63.8510  42.8899 15.62660154  1305,6758.114000000001,92.151,380.811,379.146,0.0
53011.0,STARLINK-4265,PAYLOAD,2022-09-09 22:00:00,15.61895333,0.0001301,53.2173,61.17,63.799,118.7431,-0.013084,-0.01055809,0.0,0 STARLINK-4265,1 53011U 22076AB  22252.91667824 -.01055809  00000-0 -13084-1 0  9990,2 53011  53.2173  61.1700 0001301  63.7990 118.7431 15.61895333  1300,6760.32,92.196,383.064,381.305,0.0
53011.0,STARLINK-4265,PAYLOAD,2022-09-10 14:00:01,15.60382458,0.0001169,53.2176,57.9223,59.5138,271.8893,-0.014019,-0.01065651,0.0,0 STARLINK-4265,1 53011U 22076AB  22253.58334491 -.01065651  00000-0 -14019-1 0  9990,2 53011  53.2176  57.9223 0001169  59.5138 271.8893 15.60382458 10733,6764.688,92.285,387.344,385.763,0.0
53011.0,STARLINK-4265,PAYLOAD,2022-09-10 22:00:00,15.59619796,0.0001256,53.2173,56.3034,50.1365,354.3292,-0.014351,-0.01059895,0.0,0 STARLINK-4265,1 53011U 22076AB  22253.91667824 -.01059895  00000-0 -14351-1 0  9998,2 53011  53.2173  56.3034 0001256  50.1365 354.3292 15.59619796  1308,6766.894,92.33,389.609,387.909,0.0
53011.0,STARLINK-4265,PAYLOAD,2022-09-11 14:00:01,15.58101221,0.0001435,53.2175,53.0669,55.4482,132.4048,-0.015215,-0.01060437,0.0,0 STARLINK-4265,1 53011U 22076AB  22254.58334491 -.01060437  00000-0 -15215-1 0  9997,2 53011  53.2175  53.0669 0001435  55.4482 132.4048 15.58101221  1307,6771.29,92.42,394.126,392.1830000000001,0.0
53011.0,STARLINK-4265,PAYLOAD,2022-09-11 22:00:00,15.5734024,0.0001345,53.2171,51.4534,54.1795,203.9972,-0.015605,-0.01057063,0.0,0 STARLINK-4265,1 53011U 22076AB  22254.91667824 -.01057063  00000-0 -15605-1 0  9997,2 53011  53.2171  51.4534 0001345  54.1795 203.9972 15.57340240  1304,6773.495,92.465,396.271,394.449,0.0
53011.0,STARLINK-4265,PAYLOAD,2022-09-12 12:00:00,15.56014067,0.0001294,53.2174,48.6301,57.1225,231.9255,-0.01648,-0.0106169,0.0,0 STARLINK-4265,1 53011U 22076AB  22255.50001157 -.01061690  00000-0 -16480-1 0  9997,2 53011  53.2174  48.6301 0001294  57.1225 231.9255 15.56014067 11031,6777.343000000003,92.544,400.085,398.331,0.0
53011.0,STARLINK-4265,PAYLOAD,2022-09-12 14:00:01,15.55824996,0.0001337,53.2174,48.2281,46.7589,349.3279,-0.016631,-0.01063705,0.0,0 STARLINK-4265,1 53011U 22076AB  22255.58334491 -.01063705  00000-0 -16631-1 0  9992,2 53011  53.2174  48.2281 0001337  46.7589 349.3279 15.55824996  1307,6777.893,92.555,400.664,398.851,0.0
53011.0,STARLINK-4265,PAYLOAD,2022-09-12 22:00:00,15.55060189,0.0001523,53.2166,46.622,44.1909,59.4836,-0.01699,-0.01056944,0.0,0 STARLINK-4265,1 53011U 22076AB  22255.91667824 -.01056944  00000-0 -16990-1 0  9993,2 53011  53.2166  46.6220 0001523  44.1909  59.4836 15.55060189  1302,6780.115,92.601,403.012,400.947,0.0
53011.0,STARLINK-4265,PAYLOAD,2022-09-13 06:00:00,15.54302421,0.0001481,53.2173,45.0103,49.4275,120.921,-0.017477,-0.01057194,0.0,0 STARLINK-4265,1 53011U 22076AB  22256.25001157 -.01057194  00000-0 -17477-1 0  9991,2 53011  53.2173  45.0103 0001481  49.4275 120.9210 15.54302421 11140,6782.318,92.646,405.18800000000016,403.179,0.0
53011.0,STARLINK-4265,PAYLOAD,2022-09-13 14:00:01,15.53543472,0.0001473,53.2176,43.4058,52.4607,183.6478,-0.0179819999999999,-0.01057784,0.0,0 STARLINK-4265,1 53011U 22076AB  22256.58334491 -.01057784  00000-0 -17982-1 0  9993,2 53011  53.2176  43.4058 0001473  52.4607 183.6478 15.53543472  1309,6784.526999999999,92.691,407.391,405.393,0.0
53011.0,STARLINK-4265,PAYLOAD,2022-09-13 22:00:00,15.52785749,0.0001495,53.2172,41.8027,40.2174,260.738,-0.018524,-0.01059747,0.0,0 STARLINK-4265,1 53011U 22076AB  22256.91667824 -.01059747  00000-0 -18524-1 0  9993,2 53011  53.2172  41.8027 0001495  40.2174 260.7380 15.52785749  1304,6786.734,92.737,409.61300000000006,407.584,0.0
53011.0,STARLINK-4265,PAYLOAD,2022-09-14 06:00:00,15.52024052,0.0001314,53.2173,40.1987,43.5575,321.336,-0.018999,-0.0105745,0.0,0 STARLINK-4265,1 53011U 22076AB  22257.25001157 -.01057450  00000-0 -18999-1 0  9997,2 53011  53.2173  40.1987 0001314  43.5575 321.3360 15.52024052 11309,6788.954000000002,92.782,411.711,409.927,0.0
53011.0,STARLINK-4265,PAYLOAD,2022-09-14 14:00:01,15.51268418,0.0001553,53.2176,38.6002,39.4743,28.4399,-0.019674,-0.01064885,0.0,0 STARLINK-4265,1 53011U 22076AB  22257.58334491 -.01064885  00000-0 -19674-1 0  9994,2 53011  53.2176  38.6002 0001553  39.4743  28.4399 15.51268418  1309,6791.159000000002,92.827,414.078,411.969,0.0
53011.0,STARLINK-4265,PAYLOAD,2022-09-14 22:00:00,15.50395196,0.0001481,53.2166,37.0056,42.8463,87.1844,-0.010886,-0.00584776,0.0,0 STARLINK-4265,1 53011U 22076AB  22257.91667824 -.00584776  00000-0 -10886-1 0  9991,2 53011  53.2166  37.0056 0001481  42.8463  87.1844 15.50395196 11409,6793.708000000001,92.88,416.579,414.567,0.0
53011.0,STARLINK-4265,PAYLOAD,2022-09-15 06:00:00,15.49880893,0.0001421,53.2172,35.4074,48.0258,143.2921,0.0001165,6.165e-05,0.0,0 STARLINK-4265,1 53011U 22076AB  22258.25001157  .00006165  00000-0  11650-3 0  9991,2 53011  53.2172  35.4074 0001421  48.0258 143.2921 15.49880893 11469,6795.2109999999975,92.91,418.042,416.111,0.0
53011.0,STARLINK-4265,PAYLOAD,2022-09-15 14:00:01,15.49936743,0.0001565999999999,53.2156,33.8254,46.675,205.5919,-0.0013702999999999,-0.00077601,0.0,0 STARLINK-4265,1 53011U 22076AB  22258.58334491 -.00077601  00000-0 -13703-2 0  9992,2 53011  53.2156  33.8254 0001566  46.6750 205.5919 15.49936743  1301,6795.0480000000025,92.907,417.977,415.849,0.0
53011.0,STARLINK-4265,PAYLOAD,2022-09-15 22:00:00,15.49917601,0.0001612,53.2155,32.2327,40.0004,273.1999,-0.00096868,-0.00055108,0.0,0 STARLINK-4265,1 53011U 22076AB  22258.91667824 -.00055108  00000-0 -96868-3 0  9990,2 53011  53.2155  32.2327 0001612  40.0004 273.1999 15.49917601  1307,6795.104,92.908,418.064,415.874,0.0
53011.0,STARLINK-4265,PAYLOAD,2022-09-16 02:00:01,15.49912068,0.0001585,53.2159,31.435,45.5487,118.1176,-0.0017935,-0.00101039,0.0,0 STARLINK-4265,1 53011U 22076AB  22259.08334491 -.00101039  00000-0 -17935-2 0  9992,2 53011  53.2159  31.4350 0001585  45.5487 118.1176 15.49912068 11580,6795.12,92.908,418.062,415.908,0.0
53011.0,STARLINK-4265,PAYLOAD,2022-09-16 14:00:01,15.49871289,0.0001781,53.2163,29.0456,48.3569,26.647,-0.00029602,-0.00017208,0.0,0 STARLINK-4265,1 53011U 22076AB  22259.58334491 -.00017208  00000-0 -29602-3 0  9996,2 53011  53.2163  29.0456 0001781  48.3569  26.6470 15.49871289  1303,6795.239000000001,92.911,418.314,415.894,0.0
53011.0,STARLINK-4265,PAYLOAD,2022-09-16 16:00:00,15.498574,0.0001859,53.216,28.6483,46.8801,133.3466,0.0001981,0.00010796,0.0,0 STARLINK-4265,1 53011U 22076AB  22259.66667824  .00010796  00000-0  19810-3 0  9997,2 53011  53.2160  28.6483 0001859  46.8801 133.3466 15.49857400 11685,6795.28,92.912,418.408,415.882,0.0
53011.0,STARLINK-4265,PAYLOAD,2022-09-16 22:00:00,15.49873626,0.0001869,53.216,27.4534,44.2408,91.6446,0.00017196,9.316e-05,0.0,0 STARLINK-4265,1 53011U 22076AB  22259.91667824  .00009316  00000-0  17196-3 0  9996,2 53011  53.2160  27.4534 0001869  44.2408  91.6446 15.49873626  1305,6795.232,92.911,418.367,415.827,0.0
53011.0,STARLINK-4265,PAYLOAD,2022-09-17 14:00:01,15.49903893,0.000188,53.2167,24.2633,47.5281,210.1682,-0.00042887,-0.00024733,0.0,0 STARLINK-4265,1 53011U 22076AB  22260.58334491 -.00024733  00000-0 -42887-3 0  9999,2 53011  53.2167  24.2633 0001880  47.5281 210.1682 15.49903893  1305,6795.144,92.909,418.286,415.731,0.0
53011.0,STARLINK-4265,PAYLOAD,2022-09-17 22:00:00,15.50002722,0.0001559,53.2165,22.6656,47.3777,271.2366,-0.0131,-0.00685066,0.0,0 STARLINK-4265,1 53011U 22076AB  22260.91667824 -.00685066  00000-0 -13100-1 0  9991,2 53011  53.2165  22.6656 0001559  47.3777 271.2366 15.50002722  1301,6794.855,92.903,417.779,415.661,0.0
53011.0,STARLINK-4265,PAYLOAD,2022-09-18 06:00:00,15.49552165,0.0001479,53.2173,21.0651,38.0405,341.3402,-0.0207539999999999,-0.01057197,0.0,0 STARLINK-4265,1 53011U 22076AB  22261.25001157 -.01057197  00000-0 -20754-1 0  9992,2 53011  53.2173  21.0651 0001479  38.0405 341.3402 15.49552165 11922,6796.172,92.93,419.042,417.032,0.0
53011.0,STARLINK-4265,PAYLOAD,2022-09-18 14:00:01,15.48794572,0.0002051,53.2175,19.4727,26.893,52.6027,-0.021368,-0.01059574,0.0,0 STARLINK-4265,1 53011U 22076AB  22261.58335648 -.01059574  00000-0 -21368-1 0  9996,2 53011  53.2175  19.4727 0002051  26.8930  52.6027 15.48794572  1309,6798.388000000001,92.976,421.648,418.859,0.0
